ONEWEB-0456             
1 51646U 22012AA  24303.52576993  .00000020  00000+0  19898-4 0  9997
2 51646  87.8905 154.8330 0001713  77.7963 282.3356 13.10366564131331
ONEWEB-0457             
1 51647U 22012AB  24303.34982513  .00000670  00000+0  18844-2 0  9996
2 51647  87.8920 154.9025 0001300  81.0750 279.0525 13.10373264131319
ONEWEB-0458             
1 51648U 22012AC  24303.29503479  .00000038  00000+0  73392-4 0  9990
2 51648  87.8897 154.9290 0001591  86.5221 273.6088 13.10371003131269
ONEWEB-0461             
1 51649U 22012AD  24303.58576298  .00000080  00000+0  17380-3 0  9993
2 51649  87.9066 124.5060 0001493  88.0704 272.0599 13.17648198135455
ONEWEB-0463             
1 51650U 22012AE  24303.49126409 -.00000079  00000+0 -23553-3 0  9999
2 51650  87.9075 124.5777 0001685  91.8179 268.3145 13.17654885135223
ONEWEB-0464             
1 51651U 22012AF  24303.52079678  .00000293  00000+0  80298-3 0  9994
2 51651  87.8918 154.8744 0001883  76.8982 283.2356 13.10369079131311
ONEWEB-0468             
1 51652U 22012AG  24303.52743218 -.00000068  00000+0 -23054-3 0  9992
2 51652  87.8917 154.8652 0001565  80.0627 280.0677 13.10369791131298
ONEWEB-0473             
1 51653U 22012AH  24303.35976426  .00001673  00000+0  47542-2 0  9991
2 51653  87.8917 154.9019 0001610  85.8998 274.2313 13.10382920131271
ONEWEB-0474             
1 51654U 22012AJ  24303.35148658  .00000633  00000+0  17777-2 0  9992
2 51654  87.8911 154.8883 0001780  82.5932 277.5397 13.10372538131265
ONEWEB-0475             
1 51655U 22012AK  24303.27528602  .00000059  00000+0  11902-3 0  9992
2 51655  87.9073 124.6004 0002314 100.6900 259.4492 13.17650658135210
ONEWEB-0490             
1 54113U 22138A   24303.59366191  .00001281  00000+0  31659-2 0  9999
2 54113  87.9165  63.3998 0001867  95.3143 264.8202 13.19734267 98270
ONEWEB-0492             
1 54114U 22138B   24303.61896092  .00000088  00000+0  18623-3 0  9992
2 54114  87.9169  63.4048 0001695  90.1579 269.9747 13.19725796 98285
ONEWEB-0495             
1 54115U 22138C   24303.59681502 -.00000173  00000+0 -46389-3 0  9995
2 54115  87.9173  63.4208 0002430  94.6302 265.5108 13.19728988 98267
ONEWEB-0497             
1 54116U 22138D   24303.30620250  .00000156  00000+0  35620-3 0  9993
2 54116  87.9167  63.4608 0001679  94.8398 265.2927 13.19722959 98219
ONEWEB-0499             
1 54117U 22138E   24303.59208180 -.00000187  00000+0 -49863-3 0  9999
2 54117  87.9170  63.4110 0001988 110.4202 249.7145 13.19725762 98263
ONEWEB-0500             
1 54118U 22138F   24303.59524849  .00000177  00000+0  41057-3 0  9997
2 54118  87.9169  63.4025 0001616  96.5319 263.5998 13.19725557 98271
ONEWEB-0501             
1 54119U 22138G   24303.62526028  .00000162  00000+0  37103-3 0  9994
2 54119  87.9168  63.3930 0002183  96.2572 263.8809 13.19728242 98259
ONEWEB-0502             
1 54120U 22138H   24303.61105694 -.00001222  00000+0 -30836-2 0  9992
2 54120  87.9167  63.3833 0002090  96.7302 263.4068 13.19731727 98272
ONEWEB-0503             
1 54121U 22138J   24303.59998474  .00000117  00000+0  25895-3 0  9996
2 54121  87.9162  63.3914 0001658 112.7254 247.4054 13.19728367 98264
ONEWEB-0504             
1 54122U 22138K   24303.58736014  .00000130  00000+0  29325-3 0  9993
2 54122  87.9166  63.4030 0001944 104.4900 255.6448 13.19724738 98270
ONEWEB-0505             
1 54123U 22138L   24303.58420570  .00000213  00000+0  49979-3 0  9990
2 54123  87.9167  63.3966 0002356  99.9565 260.1833 13.19724719 98258
ONEWEB-0506             
1 54124U 22138M   24303.63474524 -.00000005  00000+0 -44123-4 0  9993
2 54124  87.9165  63.3835 0001847  95.8871 264.2472 13.19723997 98252
ONEWEB-0507             
1 54125U 22138N   24303.57946183  .00000179  00000+0  41352-3 0  9992
2 54125  87.9174  63.4271 0001867  94.9596 265.1750 13.19724966 98294
ONEWEB-0508             
1 54126U 22138P   24303.57630091  .00000141  00000+0  32094-3 0  9993
2 54126  87.9171  63.4174 0002027  90.8852 269.2513 13.19724241 98279
ONEWEB-0509             
1 54127U 22138Q   24303.62683315  .00000165  00000+0  37957-3 0  9996
2 54127  87.9165  63.3853 0001748  96.7986 263.3346 13.19728137 98253
ONEWEB-0510             
1 54128U 22138R   24303.53159998  .00000123  00000+0  27180-3 0  9993
2 54128  87.9300  32.9244 0001491  92.2471 267.8833 13.20772707100658
ONEWEB-0511             
1 54129U 22138S   24303.62368816  .00000186  00000+0  43199-3 0  9992
2 54129  87.9167  63.3899 0001779 108.7102 251.4224 13.19723614 98286
ONEWEB-0512             
1 54130U 22138T   24303.61580122  .00000082  00000+0  17238-3 0  9999
2 54130  87.9174  63.4180 0002117 100.0368 260.1004 13.19724861 98251
ONEWEB-0513             
1 54131U 22138U   24303.58655944  .00000155  00000+0  35475-3 0  9995
2 54131  87.9169  63.4147 0002238 104.6909 255.4472 13.19728330 98132
ONEWEB-0514             
1 54132U 22138V   24303.63158404  .00000068  00000+0  13705-3 0  9996
2 54132  87.9166  63.3967 0001626 100.1076 260.0240 13.19724243 98274
ONEWEB-0515             
1 54133U 22138W   24303.29174062  .00013776  00000+0  33818-1 0  9992
2 54133  87.9306  32.9499 0000428  79.7327 280.3854 13.20735393100643
ONEWEB-0516             
1 54134U 22138X   24303.60631840  .00000208  00000+0  48715-3 0  9990
2 54134  87.9174  63.4217 0001689  94.9917 265.1408 13.19725349 98277
ONEWEB-0517             
1 54135U 22138Y   24303.58577949  .00000176  00000+0  40809-3 0  9997
2 54135  87.9167  63.4013 0001736 112.6470 247.4846 13.19724782 98278
ONEWEB-0518             
1 54136U 22138Z   24303.60473170  .00000167  00000+0  38501-3 0  9998
2 54136  87.9174  63.4192 0001706 101.6613 258.4711 13.19723561 98276
ONEWEB-0519             
1 54137U 22138AA  24303.63002003  .00000029  00000+0  39987-4 0  9992
2 54137  87.9165  63.3871 0001665 106.6976 253.4340 13.19725709 98281
ONEWEB-0520             
1 54138U 22138AB  24303.28566252  .00000133  00000+0  30095-3 0  9991
2 54138  87.9164  63.4587 0002022  94.2123 265.9241 13.19725022 98220
ONEWEB-0521             
1 54139U 22138AC  24303.62212318  .00000142  00000+0  32280-3 0  9999
2 54139  87.9165  63.3828 0001471 105.6473 254.4822 13.19726690 98210
ONEWEB-0522             
1 54140U 22138AD  24303.60158028  .00000159  00000+0  36365-3 0  9992
2 54140  87.9164  63.3886 0001713  95.1874 264.9455 13.19725006 98254
ONEWEB-0523             
1 54141U 22138AE  24303.50634534  .00000202  00000+0  46503-3 0  9997
2 54141  87.9298  32.9367 0000809 107.6477 252.4744 13.20768261100677
ONEWEB-0524             
1 54142U 22138AF  24303.49529165  .00000188  00000+0  43132-3 0  9997
2 54142  87.9299  32.9416 0001497  63.5106 296.6181 13.20775527100675
ONEWEB-0525             
1 54143U 22138AG  24303.62051854 -.00006765  00000+0 -16936-1 0  9997
2 54143  87.9170  63.3975 0001814 100.0075 260.1262 13.19756686 98278
ONEWEB-0526             
1 54144U 22138AH  24303.57789431  .00000099  00000+0  21594-3 0  9991
2 54144  87.9163  63.3981 0001770  96.3154 263.8180 13.19725461 98247
ONEWEB-0529             
1 54145U 22138AJ  24303.58103107  .00000118  00000+0  26232-3 0  9999
2 54145  87.9172  63.4225 0001923  95.6634 264.4718 13.19724095 98263
ONEWEB-0531             
1 54146U 22138AK  24303.55686199  .00000039  00000+0  63261-4 0  9990
2 54146  87.9298  32.9215 0000781  79.5972 280.5249 13.20771197100685
ONEWEB-0535             
1 54147U 22138AL  24303.61420577  .00000040  00000+0  66894-4 0  9991
2 54147  87.9165  63.3889 0001351  96.9453 263.1833 13.19723575 98288
ONEWEB-0536             
1 54148U 22138AM  24303.54421194  .00000072  00000+0  14431-3 0  9994
2 54148  87.9298  32.9718 0000809 121.9206 238.2006 13.20774907100670
ONEWEB-0527             
1 54642U 22166A   24303.44065329  .00000051  00000+0  90814-4 0  9994
2 54642  87.9349   2.6582 0001853  94.3375 265.7971 13.21824210 92837
ONEWEB-0528             
1 54643U 22166B   24303.44696765  .00000108  00000+0  23019-3 0  9994
2 54643  87.9354   2.6485 0001964  96.3850 263.7508 13.21824860 92845
ONEWEB-0539             
1 54644U 22166C   24303.40752000  .00000044  00000+0  74435-4 0  9994
2 54644  87.9353   2.6600 0001935 103.5789 256.5560 13.21829144 92831
ONEWEB-0540             
1 54645U 22166D   24303.40200791  .00000029  00000+0  39128-4 0  9993
2 54645  87.9349   2.6717 0001996 104.3610 255.7746 13.21828729 92829
ONEWEB-0542             
1 54646U 22166E   24303.11419963  .00000201  00000+0  45578-3 0  9992
2 54646  87.9353   2.7170 0001798 114.5121 245.6200 13.21827860 92793
ONEWEB-0545             
1 54647U 22166F   24303.45956479  .00000099  00000+0  20822-3 0  9998
2 54647  87.9343   2.6564 0002194 109.3867 250.7504 13.21828895 92804
ONEWEB-0580             
1 54648U 22166G   24303.43277165  .00000015  00000+0  45772-5 0  9996
2 54648  87.9350   2.6405 0001846 113.4177 246.7151 13.21825321 92848
ONEWEB-0582             
1 54649U 22166H   24303.39966305  .00000019  00000+0  13333-4 0  9994
2 54649  87.9347   2.6801 0001741 118.8480 241.2829 13.21827680 92814
ONEWEB-0583             
1 54650U 22166J   24303.41068554  .00000032  00000+0  45875-4 0  9999
2 54650  87.9345   2.6759 0001905 100.9077 259.2272 13.21823819 92824
ONEWEB-0584             
1 54651U 22166K   24303.43118975  .00000097  00000+0  20392-3 0  9992
2 54651  87.9353   2.6445 0001663 114.2107 245.9201 13.21824324 92814
ONEWEB-0585             
1 54652U 22166L   24303.45641445  .00000075  00000+0  14951-3 0  9998
2 54652  87.9341   2.6507 0001773  94.6423 265.4913 13.21826150 92822
ONEWEB-0586             
1 54653U 22166M   24303.46903010  .00000070  00000+0  13750-3 0  9990
2 54653  87.9347   2.6550 0001890 105.1293 255.0050 13.21826724 92824
ONEWEB-0587             
1 54654U 22166N   24303.40281327  .00000009  00000+0 -10410-4 0  9999
2 54654  87.9345   2.6213 0001883  91.7519 268.3830 13.21825693 92975
